LANDSAT 9               
1 49260U 21088A   23361.12423670  .00000728  00000+0  17158-3 0  9991
2 49260  98.2100  68.4966 0001120  90.6899 269.4428 14.57117566119488
